NORAD_CAT_ID,OBJECT_NAME,OBJECT_TYPE,EPOCH,MEAN_MOTION,ECCENTRICITY,INCLINATION,RA_OF_ASC_NODE,ARG_OF_PERICENTER,MEAN_ANOMALY,BSTAR,MEAN_MOTION_DOT,MEAN_MOTION_DDOT,TLE_LINE0,TLE_LINE1,TLE_LINE2,SEMIMAJOR_AXIS,PERIOD,APOGEE,PERIGEE,DECAYED
53720.0,STARLINK-4642,PAYLOAD,2023-03-13 23:09:06,15.088412,9.19e-05,53.2186,114.8201,117.1669,242.9417,9.0312e-05,1.15e-05,0.0,0 STARLINK-4642,1 53720U 22107W   23072.96465648  .00001150  00000-0  90312-4 0  9997,2 53720  53.2186 114.8201 0000919 117.1669 242.9417 15.08841200 29145,6917.877,95.437,540.377,539.106,0.0
53720.0,STARLINK-4642,PAYLOAD,2023-03-14 11:52:11,15.08847608,0.0001016,53.2184,112.4411,97.295,262.8157,1.8459e-05,6e-08,0.0,0 STARLINK-4642,1 53720U 22107W   23073.49457618  .00000006  00000-0  18459-4 0  9995,2 53720  53.2184 112.4411 0001016  97.2950 262.8157 15.08847608 29689,6917.857,95.437,540.425,539.019,0.0
53720.0,STARLINK-4642,PAYLOAD,2023-03-14 19:49:07,15.08844071,0.0001005,53.2188,110.9532,99.5937,260.5169,7.8278e-06,-1.63e-06,0.0,0 STARLINK-4642,1 53720U 22107W   23073.82577708 -.00000163  00000-0  78278-5 0  9996,2 53720  53.2188 110.9532 0001005  99.5937 260.5169 15.08844071 29733,6917.868,95.437,540.428,539.038,0.0
53720.0,STARLINK-4642,PAYLOAD,2023-03-15 02:10:39,15.08847086,9.35e-05,53.2181,109.7633,50.5295,309.578,4.2624e-06,-2.2e-06,0.0,0 STARLINK-4642,1 53720U 22107W   23074.09073515 -.00000220  00000-0  42624-5 0  9993,2 53720  53.2181 109.7633 0000935  50.5295 309.5780 15.08847086 29315,6917.859,95.437,540.371,539.077,0.0
53720.0,STARLINK-4642,PAYLOAD,2023-03-15 08:32:11,15.08856414,0.0001251,53.2173,108.5763,73.5652,286.5478,8.3909e-05,1.048e-05,0.0,0 STARLINK-4642,1 53720U 22107W   23074.35568425  .00001048  00000-0  83909-4 0  9999,2 53720  53.2173 108.5763 0001251  73.5652 286.5478 15.08856414 29358,6917.83,95.437,540.561,538.83,0.0
53720.0,STARLINK-4642,PAYLOAD,2023-03-15 19:39:53,15.08846089,0.0001491,53.2169,106.4952,59.5638,300.5501,9.187e-05,1.175e-05,0.0,0 STARLINK-4642,1 53720U 22107W   23074.81936627  .00001175  00000-0  91870-4 0  9990,2 53720  53.2169 106.4952 0001491  59.5638 300.5501 15.08846089 29423,6917.862,95.437,540.758,538.695,0.0
53720.0,STARLINK-4642,PAYLOAD,2023-03-16 05:12:13,15.08829681,0.000132,53.2177,104.708,113.7444,246.3687,-4.2781e-05,-9.68e-06,0.0,0 STARLINK-4642,1 53720U 22107W   23075.21681894 -.00000968  00000-0 -42781-4 0  9996,2 53720  53.2177 104.7080 0001320 113.7444 246.3687 15.08829681 29481,6917.912,95.438,540.69,538.864,0.0
53720.0,STARLINK-4642,PAYLOAD,2023-03-16 11:33:45,15.08833487,0.0001198,53.2182,103.5184,112.2912,247.8207,-0.00010939,-2.028e-05,0.0,0 STARLINK-4642,1 53720U 22107W   23075.48178034 -.00002028  00000-0 -10939-3 0  9990,2 53720  53.2182 103.5184 0001198 112.2912 247.8207 15.08833487 29984,6917.9,95.438,540.594,538.937,0.0
53720.0,STARLINK-4642,PAYLOAD,2023-03-16 22:41:28,15.08821723,0.0001292,53.2178,101.4355,118.7553,241.3569,-0.00016884,-2.973e-05,0.0,0 STARLINK-4642,1 53720U 22107W   23075.94547284 -.00002973  00000-0 -16884-3 0  9992,2 53720  53.2178 101.4355 0001292 118.7553 241.3569 15.08821723 29590,6917.936,95.439,540.695,538.907,0.0
53720.0,STARLINK-4642,PAYLOAD,2023-03-17 08:13:48,15.08821246,0.000111,53.2172,99.6523,87.0849,273.0271,-0.00018218,-3.184e-05,0.0,0 STARLINK-4642,1 53720U 22107W   23076.34291950 -.00003184  00000-0 -18218-3 0  9991,2 53720  53.2172  99.6523 0001110  87.0849 273.0271 15.08821246 30116,6917.938,95.439,540.571,539.035,0.0
53720.0,STARLINK-4642,PAYLOAD,2023-03-17 22:32:15,15.08822891,0.0001116,53.2179,96.9781,94.5309,265.5811,4.3748e-05,4.08e-06,0.0,0 STARLINK-4642,1 53720U 22107W   23076.93907384  .00000408  00000-0  43748-4 0  9992,2 53720  53.2179  96.9781 0001116  94.5309 265.5811 15.08822891 29749,6917.933,95.439,540.57,539.026,0.0
53720.0,STARLINK-4642,PAYLOAD,2023-03-18 08:04:34,15.08834793,0.000115,53.2179,95.1953,87.5578,272.5546,0.00012206,1.655e-05,0.0,0 STARLINK-4642,1 53720U 22107W   23077.33650737  .00001655  00000-0  12206-3 0  9993,2 53720  53.2179  95.1953 0001150  87.5578 272.5546 15.08834793 29803,6917.896,95.438,540.557,538.966,0.0
53720.0,STARLINK-4642,PAYLOAD,2023-03-18 17:36:52,15.08838026,0.0001093,53.2179,93.4107,91.7738,268.3379,0.00013757,1.902e-05,0.0,0 STARLINK-4642,1 53720U 22107W   23077.73394578  .00001902  00000-0  13757-3 0  9992,2 53720  53.2179  93.4107 0001093  91.7738 268.3379 15.08838026 30325,6917.886,95.438,540.508,538.995,0.0
53720.0,STARLINK-4642,PAYLOAD,2023-03-19 09:30:43,15.08844935,0.0001181,53.2181,90.4377,87.1049,273.0078,0.00028314,4.222e-05,0.0,0 STARLINK-4642,1 53720U 22107W   23078.39633771  .00004222  00000-0  28314-3 0  9999,2 53720  53.2181  90.4377 0001181  87.1049 273.0078 15.08844935 29969,6917.865,95.437,540.547,538.913,0.0
53720.0,STARLINK-4642,PAYLOAD,2023-03-19 17:27:39,15.08843129,0.0001308,53.219,88.9497,75.8142,284.2995,0.00011314,1.513e-05,0.0,0 STARLINK-4642,1 53720U 22107W   23078.72754418  .00001513  00000-0  11314-3 0  9990,2 53720  53.2190  88.9497 0001308  75.8142 284.2995 15.08843129 30017,6917.871,95.437,540.641,538.831,0.0
53720.0,STARLINK-4642,PAYLOAD,2023-03-20 06:10:45,15.08838348,0.0001176,53.2185,86.5729,88.0323,272.0804,-4.9265e-05,-1.072e-05,0.0,0 STARLINK-4642,1 53720U 22107W   23079.25747309 -.00001072  00000-0 -49265-4 0  9999,2 53720  53.2185  86.5729 0001176  88.0323 272.0804 15.08838348 30092,6917.885,95.438,540.564,538.937,0.0
53720.0,STARLINK-4642,PAYLOAD,2023-03-20 09:21:31,15.08841029,0.0001211,53.2183,85.9781,88.2031,271.91,-2.7162e-05,-7.2e-06,0.0,0 STARLINK-4642,1 53720U 22107W   23079.38995044 -.00000720  00000-0 -27162-4 0  9995,2 53720  53.2183  85.9781 0001211  88.2031 271.9100 15.08841029 30579,6917.877,95.437,540.58,538.904,0.0
53720.0,STARLINK-4642,PAYLOAD,2023-03-20 17:18:27,15.08840384,0.0001218,53.2183,84.4909,87.1723,272.9408,-6.6275e-05,-1.342e-05,0.0,0 STARLINK-4642,1 53720U 22107W   23079.72115144 -.00001342  00000-0 -66275-4 0  9997,2 53720  53.2183  84.4909 0001218  87.1723 272.9408 15.08840384 30629,6917.879,95.438,540.587,538.902,0.0
53720.0,STARLINK-4642,PAYLOAD,2023-03-21 07:36:54,15.08850945,0.0001253,53.2184,81.815,83.4831,276.6304,-5.1468e-05,-1.107e-05,0.0,0 STARLINK-4642,1 53720U 22107W   23080.31730228 -.00001107  00000-0 -51468-4 0  9997,2 53720  53.2184  81.8150 0001253  83.4831 276.6304 15.08850945 30256,6917.847,95.437,540.579,538.845,0.0
53720.0,STARLINK-4642,PAYLOAD,2023-03-21 09:12:17,15.08851292,0.0001262,53.2181,81.5168,84.2043,275.9093,-4.3383e-05,-9.78e-06,0.0,0 STARLINK-4642,1 53720U 22107W   23080.38354127 -.00000978  00000-0 -43383-4 0  9996,2 53720  53.2181  81.5168 0001262  84.2043 275.9093 15.08851292 30728,6917.846,95.437,540.584,538.838,0.0
53720.0,STARLINK-4642,PAYLOAD,2023-03-21 17:09:13,15.08848824,0.000126,53.2185,80.0304,86.4833,273.6304,-0.00011276,-2.082e-05,0.0,0 STARLINK-4642,1 53720U 22107W   23080.71474345 -.00002082  00000-0 -11276-3 0  9991,2 53720  53.2185  80.0304 0001260  86.4833 273.6304 15.08848824 30779,6917.853,95.437,540.59,538.847,0.0
53720.0,STARLINK-4642,PAYLOAD,2023-03-22 05:52:19,15.08830085,0.000141,53.2195,77.6512,84.8812,275.2341,3.5693e-05,2.8e-06,0.0,0 STARLINK-4642,1 53720U 22107W   23081.24467213  .00000280  00000-0  35693-4 0  9992,2 53720  53.2195  77.6512 0001410  84.8812 275.2341 15.08830085 30396,6917.911,95.438,540.751,538.8,0.0
53720.0,STARLINK-4642,PAYLOAD,2023-03-22 21:46:10,15.08837306,0.0001503,53.2184,74.6764,86.9434,273.173,3.0341e-05,1.95e-06,0.0,0 STARLINK-4642,1 53720U 22107W   23081.90706895  .00000195  00000-0  30341-4 0  9997,2 53720  53.2184  74.6764 0001503  86.9434 273.1730 15.08837306 30950,6917.889,95.438,540.793,538.714,0.0
53720.0,STARLINK-4642,PAYLOAD,2023-03-23 05:43:05,15.08845664,0.0001437,53.2184,73.1896,91.1117,269.004,2.2881e-05,7.6e-07,0.0,0 STARLINK-4642,1 53720U 22107W   23082.23826341  .00000076  00000-0  22881-4 0  9991,2 53720  53.2184  73.1896 0001437  91.1117 269.0040 15.08845664 30541,6917.863,95.437,540.722,538.734,0.0
53720.0,STARLINK-4642,PAYLOAD,2023-03-23 08:53:52,15.08847268,0.000137,53.2183,72.5946,86.0955,274.0194,3.3557e-05,2.46e-06,0.0,0 STARLINK-4642,1 53720U 22107W   23082.37074155  .00000246  00000-0  33557-4 0  9995,2 53720  53.2183  72.5946 0001370  86.0955 274.0194 15.08847268 31020,6917.858,95.437,540.671,538.775,0.0
53720.0,STARLINK-4642,PAYLOAD,2023-03-23 16:50:48,15.0884333,0.0001389,53.2189,71.1078,90.35,269.7651,-3.4854e-05,-8.43e-06,0.0,0 STARLINK-4642,1 53720U 22107W   23082.70194475 -.00000843  00000-0 -34854-4 0  9996,2 53720  53.2189  71.1078 0001389  90.3500 269.7651 15.08843330 31071,6917.87,95.437,540.696,538.774,0.0
53720.0,STARLINK-4642,PAYLOAD,2023-03-24 05:33:52,15.08850988,0.00014,53.2196,68.7307,94.7856,265.3296,0.00015017,2.104e-05,0.0,0 STARLINK-4642,1 53720U 22107W   23083.23185450  .00002104  00000-0  15017-3 0  9997,2 53720  53.2196  68.7307 0001400  94.7856 265.3296 15.08850988 31155,6917.847,95.437,540.68,538.743,0.0
53720.0,STARLINK-4642,PAYLOAD,2023-03-25 03:49:18,15.08817368,0.0001448,53.2188,64.5661,102.2678,257.8476,-0.00019424,-3.376e-05,0.0,0 STARLINK-4642,1 53720U 22107W   23084.15924690 -.00003376  00000-0 -19424-3 0  9996,2 53720  53.2188  64.5661 0001448 102.2678 257.8476 15.08817368 30837,6917.95,95.439,540.816,538.813,0.0
53720.0,STARLINK-4642,PAYLOAD,2023-03-25 08:35:28,15.0882175,0.0001361,53.2193,63.675,96.767,263.3478,-0.00017078,-3.003e-05,0.0,0 STARLINK-4642,1 53720U 22107W   23084.35796615 -.00003003  00000-0 -17078-3 0  9992,2 53720  53.2193  63.6750 0001361  96.7670 263.3478 15.08821750 31324,6917.936,95.439,540.743,538.86,0.0
53720.0,STARLINK-4642,PAYLOAD,2023-03-26 05:15:27,15.08848143,0.0001322,53.2192,59.81,100.0985,260.0157,6.7864e-05,7.93e-06,0.0,0 STARLINK-4642,1 53720U 22107W   23085.21906360  .00000793  00000-0  67864-4 0  9998,2 53720  53.2192  59.8100 0001322 100.0985 260.0157 15.08848143 30999,6917.855,95.437,540.635,538.806,0.0
